{"type": "FeatureCollection", "features": [ {"type": "Feature", "properties": {"norad_id": 39155, "name": "COSMOS 2485 (747)", "group": "glo-ops", "lat": -24.89385731818909, "lon": 67.34727341421497, "alt_km": 19146.815038878052, "timestamp": "2025-12-19T14:48:36.508493+00:00", "meta": {"OBJECT_NAME": "COSMOS 2485 (747)", "OBJECT_ID": "2013-019A", "EPOCH": "2025-12-18T17:09:02.655648", "MEAN_MOTION": 2.13103192, "ECCENTRICITY": 0.00247782, "INCLINATION": 65.3168, "RA_OF_ASC_NODE": 79.6661, "ARG_OF_PERICENTER": 230.0863, "MEAN_ANOMALY": 129.7189, "EPHEMERIS_TYPE": 0, "CLASSIFICATION_TYPE": "U", "NORAD_CAT_ID": 39155, "ELEMENT_SET_NO": 999, "REV_AT_EPOCH": 9843, "BSTAR": 0, "MEAN_MOTION_DOT": -3.5e-07, "MEAN_MOTION_DDOT": 0}, "tle": {"line1": "1 39155U 13019A   25352.71461407 -.00000035  00000+0  00000+0 0  9991", "line2": "2 39155  65.3168  79.6661 0024778 230.0863 129.7189  2.13103192 98432"}}, "geometry": {"type": "Point", "coordinates": [67.34727341421497, -24.89385731818909]}}, {"type": "Feature", "properties": {"norad_id": 39620, "name": "COSMOS 2492 (754)", "group": "glo-ops", "lat": 3.740251996554357, "lon": -38.264924920577386, "alt_km": 19107.329844880795, "timestamp": "2025-12-19T14:48:36.508505+00:00", "meta": {"OBJECT_NAME": "COSMOS 2492 (754)", "OBJECT_ID": "2014-012A", "EPOCH": "2025-12-18T04:53:42.056736", "MEAN_MOTION": 2.13103354, "ECCENTRICITY": 0.0014217, "INCLINATION": 65.4043, "RA_OF_ASC_NODE": 320.0846, "ARG_OF_PERICENTER": 312.4931, "MEAN_ANOMALY": 47.3782, "EPHEMERIS_TYPE": 0, "CLASSIFICATION_TYPE": "U", "NORAD_CAT_ID": 39620, "ELEMENT_SET_NO": 999, "REV_AT_EPOCH": 9138, "BSTAR": 0, "MEAN_MOTION_DOT": -6.4e-07, "MEAN_MOTION_DDOT": 0}, "tle": {"line1": "1 39620U 14012A   25352.20395899 -.00000064  00000+0  00000+0 0  9999", "line2": "2 39620  65.4043 320.0846 0014217 312.4931  47.3782  2.13103354 91389"}}, "geometry": {"type": "Point", "coordinates": [-38.264924920577386, 3.740251996554357]}}, {"type": "Feature", "properties": {"norad_id": 40001, "name": "COSMOS 2500 (755)", "group": "glo-ops", "lat": -45.79795398056501, "lon": 167.9586207979355, "alt_km": 19115.049839908144, "timestamp": "2025-12-19T14:48:36.508516+00:00", "meta": {"OBJECT_NAME": "COSMOS 2500 (755)", "OBJECT_ID": "2014-032A", "EPOCH": "2025-12-17T21:45:50.523264", "MEAN_MOTION": 2.13106065, "ECCENTRICITY": 0.00080575, "INCLINATION": 65.3403, "RA_OF_ASC_NODE": 319.8565, "ARG_OF_PERICENTER": 219.1485, "MEAN_ANOMALY": 140.7851, "EPHEMERIS_TYPE": 0, "CLASSIFICATION_TYPE": "U", "NORAD_CAT_ID": 40001, "ELEMENT_SET_NO": 999, "REV_AT_EPOCH": 8959, "BSTAR": 0, "MEAN_MOTION_DOT": -6.5e-07, "MEAN_MOTION_DDOT": 0}, "tle": {"line1": "1 40001U 14032A   25351.90683476 -.00000065  00000+0  00000+0 0  9994", "line2": "2 40001  65.3403 319.8565 0008057 219.1485 140.7851  2.13106065 89596"}}, "geometry": {"type": "Point", "coordinates": [167.9586207979355, -45.79795398056501]}}, {"type": "Feature", "properties": {"norad_id": 40315, "name": "COSMOS 2501 (702K)", "group": "glo-ops", "lat": 28.850397570360013, "lon": -147.52990205846197, "alt_km": 19177.403123825366, "timestamp": "2025-12-19T14:48:36.508527+00:00", "meta": {"OBJECT_NAME": "COSMOS 2501 (702K)", "OBJECT_ID": "2014-075A", "EPOCH": "2025-12-19T02:31:27.452640", "MEAN_MOTION": 2.13101513, "ECCENTRICITY": 0.00200994, "INCLINATION": 63.6146, "RA_OF_ASC_NODE": 196.6046, "ARG_OF_PERICENTER": 204.1838, "MEAN_ANOMALY": 155.7988, "EPHEMERIS_TYPE": 0, "CLASSIFICATION_TYPE": "U", "NORAD_CAT_ID": 40315, "ELEMENT_SET_NO": 999, "REV_AT_EPOCH": 8601, "BSTAR": 0, "MEAN_MOTION_DOT": 1.06e-06, "MEAN_MOTION_DDOT": 0}, "tle": {"line1": "1 40315U 14075A   25353.10517885  .00000106  00000+0  00000+0 0  9998", "line2": "2 40315  63.6146 196.6046 0020099 204.1838 155.7988  2.13101513 86014"}}, "geometry": {"type": "Point", "coordinates": [-147.52990205846197, 28.850397570360013]}}, {"type": "Feature", "properties": {"norad_id": 41330, "name": "COSMOS 2514 (751)", "group": "glo-ops", "lat": 39.82733578722274, "lon": -18.10110622565225, "alt_km": 19155.241645972605, "timestamp": "2025-12-19T14:48:36.508539+00:00", "meta": {"OBJECT_NAME": "COSMOS 2514 (751)", "OBJECT_ID": "2016-008A", "EPOCH": "2025-12-19T02:08:24.725184", "MEAN_MOTION": 2.1310269, "ECCENTRICITY": 0.00118183, "INCLINATION": 65.1302, "RA_OF_ASC_NODE": 319.1866, "ARG_OF_PERICENTER": 220.1523, "MEAN_ANOMALY": 139.7515, "EPHEMERIS_TYPE": 0, "CLASSIFICATION_TYPE": "U", "NORAD_CAT_ID": 41330, "ELEMENT_SET_NO": 999, "REV_AT_EPOCH": 7678, "BSTAR": 0, "MEAN_MOTION_DOT": -6e-07, "MEAN_MOTION_DDOT": 0}, "tle": {"line1": "1 41330U 16008A   25353.08917506 -.00000060  00000+0  00000+0 0  9995", "line2": "2 41330  65.1302 319.1866 0011818 220.1523 139.7515  2.13102690 76781"}}, "geometry": {"type": "Point", "coordinates": [-18.10110622565225, 39.82733578722274]}}, {"type": "Feature", "properties": {"norad_id": 42939, "name": "COSMOS 2522 (752)", "group": "glo-ops", "lat": 9.931627830856641, "lon": 13.11144006450041, "alt_km": 19119.77598118415, "timestamp": "2025-12-19T14:48:36.508550+00:00", "meta": {"OBJECT_NAME": "COSMOS 2522 (752)", "OBJECT_ID": "2017-055A", "EPOCH": "2025-12-18T22:15:40.453056", "MEAN_MOTION": 2.13102086, "ECCENTRICITY": 0.00063844, "INCLINATION": 64.0762, "RA_OF_ASC_NODE": 198.0182, "ARG_OF_PERICENTER": 224.0179, "MEAN_ANOMALY": 136.0111, "EPHEMERIS_TYPE": 0, "CLASSIFICATION_TYPE": "U", "NORAD_CAT_ID": 42939, "ELEMENT_SET_NO": 999, "REV_AT_EPOCH": 6413, "BSTAR": 0, "MEAN_MOTION_DOT": 1.07e-06, "MEAN_MOTION_DDOT": 0}, "tle": {"line1": "1 42939U 17055A   25352.92755154  .00000107  00000+0  00000+0 0  9996", "line2": "2 42939  64.0762 198.0182 0006384 224.0179 136.0111  2.13102086 64139"}}, "geometry": {"type": "Point", "coordinates": [13.11144006450041, 9.931627830856641]}}, {"type": "Feature", "properties": {"norad_id": 43508, "name": "COSMOS 2527 (756)", "group": "glo-ops", "lat": -17.223749741201402, "lon": -91.9660564742396, "alt_km": 19112.591406123145, "timestamp": "2025-12-19T14:48:36.508561+00:00", "meta": {"OBJECT_NAME": "COSMOS 2527 (756)", "OBJECT_ID": "2018-053A", "EPOCH": "2025-12-18T10:03:29.975616", "MEAN_MOTION": 2.13102295, "ECCENTRICITY": 0.00088359, "INCLINATION": 65.4756, "RA_OF_ASC_NODE": 79.9416, "ARG_OF_PERICENTER": 226.669, "MEAN_ANOMALY": 133.2786, "EPHEMERIS_TYPE": 0, "CLASSIFICATION_TYPE": "U", "NORAD_CAT_ID": 43508, "ELEMENT_SET_NO": 999, "REV_AT_EPOCH": 5842, "BSTAR": 0, "MEAN_MOTION_DOT": -3.8e-07, "MEAN_MOTION_DDOT": 0}, "tle": {"line1": "1 43508U 18053A   25352.41909694 -.00000038  00000+0  00000+0 0  9996", "line2": "2 43508  65.4756  79.9416 0008835 226.6690 133.2786  2.13102295 58420"}}, "geometry": {"type": "Point", "coordinates": [-91.9660564742396, -17.223749741201402]}}, {"type": "Feature", "properties": {"norad_id": 43687, "name": "COSMOS 2529 (757)", "group": "glo-ops", "lat": 48.137085677835294, "lon": -13.876627665803793, "alt_km": 19135.782316388737, "timestamp": "2025-12-19T14:48:36.508572+00:00", "meta": {"OBJECT_NAME": "COSMOS 2529 (757)", "OBJECT_ID": "2018-086A", "EPOCH": "2025-12-18T12:23:46.661856", "MEAN_MOTION": 2.13102105, "ECCENTRICITY": 0.00070461, "INCLINATION": 64.2922, "RA_OF_ASC_NODE": 198.6932, "ARG_OF_PERICENTER": 253.6593, "MEAN_ANOMALY": 106.345, "EPHEMERIS_TYPE": 0, "CLASSIFICATION_TYPE": "U", "NORAD_CAT_ID": 43687, "ELEMENT_SET_NO": 999, "REV_AT_EPOCH": 5543, "BSTAR": 0, "MEAN_MOTION_DOT": 1.09e-06, "MEAN_MOTION_DDOT": 0}, "tle": {"line1": "1 43687U 18086A   25352.51651229  .00000109  00000+0  00000+0 0  9997", "line2": "2 43687  64.2922 198.6932 0007046 253.6593 106.3450  2.13102105 55434"}}, "geometry": {"type": "Point", "coordinates": [-13.876627665803793, 48.137085677835294]}}, {"type": "Feature", "properties": {"norad_id": 44299, "name": "COSMOS 2534 (758)", "group": "glo-ops", "lat": -62.10692323517734, "lon": 83.83224554778536, "alt_km": 19116.212124247184, "timestamp": "2025-12-19T14:48:36.508583+00:00", "meta": {"OBJECT_NAME": "COSMOS 2534 (758)", "OBJECT_ID": "2019-030A", "EPOCH": "2025-12-18T18:30:09.690336", "MEAN_MOTION": 2.13102412, "ECCENTRICITY": 0.0008748, "INCLINATION": 64.3658, "RA_OF_ASC_NODE": 198.6898, "ARG_OF_PERICENTER": 284.2192, "MEAN_ANOMALY": 45.4012, "EPHEMERIS_TYPE": 0, "CLASSIFICATION_TYPE": "U", "NORAD_CAT_ID": 44299, "ELEMENT_SET_NO": 999, "REV_AT_EPOCH": 5107, "BSTAR": 0, "MEAN_MOTION_DOT": 1.08e-06, "MEAN_MOTION_DDOT": 0}, "tle": {"line1": "1 44299U 19030A   25352.77094549  .00000108  00000+0  00000+0 0  9990", "line2": "2 44299  64.3658 198.6898 0008748 284.2192  45.4012  2.13102412 51071"}}, "geometry": {"type": "Point", "coordinates": [83.83224554778536, -62.10692323517734]}}, {"type": "Feature", "properties": {"norad_id": 44850, "name": "COSMOS 2544 (759)", "group": "glo-ops", "lat": -53.05715583564153, "lon": -62.93623999670974, "alt_km": 19100.834947636682, "timestamp": "2025-12-19T14:48:36.508594+00:00", "meta": {"OBJECT_NAME": "COSMOS 2544 (759)", "OBJECT_ID": "2019-088A", "EPOCH": "2025-12-16T11:40:43.010688", "MEAN_MOTION": 2.13101965, "ECCENTRICITY": 0.00138869, "INCLINATION": 65.4623, "RA_OF_ASC_NODE": 79.8328, "ARG_OF_PERICENTER": 249.7945, "MEAN_ANOMALY": 110.0707, "EPHEMERIS_TYPE": 0, "CLASSIFICATION_TYPE": "U", "NORAD_CAT_ID": 44850, "ELEMENT_SET_NO": 999, "REV_AT_EPOCH": 4682, "BSTAR": 0, "MEAN_MOTION_DOT": -5.3e-07, "MEAN_MOTION_DDOT": 0}, "tle": {"line1": "1 44850U 19088A   25350.48660892 -.00000053  00000+0  00000+0 0  9992", "line2": "2 44850  65.4623  79.8328 0013886 249.7945 110.0707  2.13101965 46826"}}, "geometry": {"type": "Point", "coordinates": [-62.93623999670974, -53.05715583564153]}}]}